{
  "norad_id": 57780,
  "name": "STARLINK-30380",
  "history": [
    {
      "epoch": "2026-03-28T16:35:05.063712Z",
      "apogee_km": 484.09796571365587,
      "perigee_km": 481.96057519708484,
      "latitude_deg": 5.5960577619029626e-05,
      "longitude_deg": 12.212813963137306,
      "height_km": 482.78268450698164,
      "semi_major_axis_km": 6861.16627045537,
      "eccentricity": 0.00015576,
      "inclination_deg": 43.0022,
      "raan_deg": 87.0917,
      "arg_perigee_deg": 271.2685,
      "mean_anomaly_deg": 88.7989,
      "mean_motion_rev_day": 15.27586621
    }
  ]
}